APRIZESAT 2             
1 28366U 04025A   26180.25252532  .00000216  00000+0  80393-4 0  9994
2 28366  98.1023 345.5505 0104870 213.0631 146.3973 14.38040877153377
SAUDICOMSAT 1           
1 28369U 04025D   26180.52799602  .00000373  00000+0  96685-4 0  9996
2 28369  98.5770 190.9924 0031843 348.0352  12.0084 14.55483153165921
SAUDICOMSAT 2           
1 28370U 04025E   26180.54628469  .00000219  00000+0  68258-4 0  9996
2 28370  98.6639 193.1421 0054619 221.3766 138.3284 14.49987462161894
APRIZESAT 1             
1 28372U 04025G   26180.49377277  .00000279  00000+0  80481-4 0  9998
2 28372  98.6302 191.5542 0045638 117.1502 243.4356 14.51783847163692
NANOSAT-1               
1 28493U 04049B   26180.33720353  .00001062  00000+0  14703-3 0  9992
2 28493  98.2290 317.2962 0002798 245.5851 114.5068 14.80182949157244
SAUDICOMSAT 7           
1 31119U 07012C   26180.39748748  .00000539  00000+0  10538-3 0  9998
2 31119  98.3784 154.7794 0056159 156.9669 203.4071 14.66121647 24226
SAUDICOMSAT 6           
1 31121U 07012E   26179.85734171  .00000476  00000+0  10088-3 0  9995
2 31121  98.4103 147.5912 0070483 290.9241  68.4426 14.62570664 21894
SAUDICOMSAT 5           
1 31124U 07012H   26180.49016708  .00000747  00000+0  13666-3 0  9995
2 31124  98.3495 155.6183 0048750  87.0113 273.6669 14.68172744 25408
SAUDICOMSAT 3           
1 31125U 07012J   26180.49738594  .00000896  00000+0  15411-3 0  9995
2 31125  98.3149 156.1730 0039467  15.1160 345.1215 14.70726467 26636
SAUDICOMSAT 4           
1 31127U 07012L   26180.45271925  .00000419  00000+0  86842-4 0  9991
2 31127  98.3990 153.2738 0062502 219.2062 140.4604 14.64523006 23083
APRIZESAT 4             
1 35684U 09041D   26179.65294848  .00000649  00000+0  84035-4 0  9993
2 35684  98.1411 255.2019 0041922 284.8620  74.7952 14.83893333913062
APRIZESAT 3             
1 35686U 09041F   26180.40377980  .00000836  00000+0  77064-4 0  9991
2 35686  98.2076 334.2139 0062270  27.7561 332.6959 14.96275213918209
S-NET D                 
1 43186U 18014G   26180.27111205  .00004917  00000+0  25367-3 0  9998
2 43186  97.5359  84.9866 0007588 350.1897   9.9186 15.16783080460590
S-NET B                 
1 43187U 18014H   26180.28280144  .00005158  00000+0  26615-3 0  9994
2 43187  97.5362  84.9854 0008079 344.0519  16.0458 15.16752732460592
S-NET A                 
1 43188U 18014J   26180.26992317  .00004784  00000+0  24683-3 0  9992
2 43188  97.5374  85.1838 0007945 345.1898  14.9101 15.16791423460596
S-NET C                 
1 43189U 18014K   26180.28673873  .00005059  00000+0  26112-3 0  9993
2 43189  97.5389  85.2769 0009055 335.1684  24.9112 15.16744260459142
SALSAT                  
1 46495U 20068K   26179.98408402  .00006804  00000+0  23731-3 0  9990
2 46495  97.8845 183.7681 0007870 257.4321 102.6038 15.29961615317164
OOV-CUBE (TUBSAT-30)    
1 60240U 24128F   26180.49810037  .00001788  00000+0  14607-3 0  9992
2 60240  61.9924 182.6432 0043101 136.5049 223.9455 15.02816667107963
LPNTSAT-001 (IOD-1)     
1 68408U 26065A   26179.60815089  .00002656  00000+0  13136-3 0  9992
2 68408  97.4007  59.8759 0015459 330.1341  29.9009 15.18593724 13993
